[{"OBJECT_NAME":"STARLINK-3236","OBJECT_ID":"2021-115AC","EPOCH":"2026-03-09T12:41:36.574656","MEAN_MOTION":15.08832827,"ECCENTRICITY":0.00010725,"INCLINATION":53.2167,"RA_OF_ASC_NODE":149.8543,"ARG_OF_PERICENTER":94.019,"MEAN_ANOMALY":266.0925,"EPHEMERIS_TYPE":0,"CLASSIFICATION_TYPE":"U","NORAD_CAT_ID":49750,"ELEMENT_SET_NO":999,"REV_AT_EPOCH":23551,"BSTAR":-1.999312e-6,"MEAN_MOTION_DOT":-3.2e-6,"MEAN_MOTION_DDOT":0},{"OBJECT_NAME":"OBJECT E","OBJECT_ID":"2025-013E","EPOCH":"2026-03-09T23:59:52.369152","MEAN_MOTION":15.10347623,"ECCENTRICITY":0.00085591,"INCLINATION":97.6477,"RA_OF_ASC_NODE":238.3736,"ARG_OF_PERICENTER":6.9171,"MEAN_ANOMALY":353.2174,"EPHEMERIS_TYPE":0,"CLASSIFICATION_TYPE":"U","NORAD_CAT_ID":62733,"ELEMENT_SET_NO":999,"REV_AT_EPOCH":6224,"BSTAR":0.00032920786,"MEAN_MOTION_DOT":5.34e-5,"MEAN_MOTION_DDOT":0}]
